{"type": "FeatureCollection", "features": [ {"type": "Feature", "properties": {"norad_id": 66809, "name": "STARLINK-35979", "group": "last-30-days", "lat": -38.141591685051424, "lon": 121.31892143679613, "alt_km": 417.02771004113765, "timestamp": "2025-12-24T22:42:20.746089+00:00", "meta": {"OBJECT_NAME": "STARLINK-35979", "OBJECT_ID": "2025-278U", "EPOCH": "2025-12-24T08:00:03.000384", "MEAN_MOTION": 15.50580152, "ECCENTRICITY": 0.00021905, "INCLINATION": 43.0002, "RA_OF_ASC_NODE": 182.3297, "ARG_OF_PERICENTER": 263.8039, "MEAN_ANOMALY": 207.0635, "EPHEMERIS_TYPE": 0, "CLASSIFICATION_TYPE": "U", "NORAD_CAT_ID": 66809, "ELEMENT_SET_NO": 999, "REV_AT_EPOCH": 482, "BSTAR": -0.00079921281, "MEAN_MOTION_DOT": -0.00046953, "MEAN_MOTION_DDOT": 0}, "tle": {"line1": "1 66809U 25278U   25358.33336806 -.00046953  00000+0 -79921-3 0  9997", "line2": "2 66809  43.0002 182.3297 0002190 263.8039 207.0635 15.50580152  4824"}}, "geometry": {"type": "Point", "coordinates": [121.31892143679613, -38.141591685051424]}}, {"type": "Feature", "properties": {"norad_id": 66810, "name": "STARLINK-36046", "group": "last-30-days", "lat": -39.45768662385785, "lon": 116.71447802305866, "alt_km": 417.37615998891033, "timestamp": "2025-12-24T22:42:20.746099+00:00", "meta": {"OBJECT_NAME": "STARLINK-36046", "OBJECT_ID": "2025-278V", "EPOCH": "2025-12-24T08:00:03.000384", "MEAN_MOTION": 15.50582154, "ECCENTRICITY": 0.0001697, "INCLINATION": 43.0002, "RA_OF_ASC_NODE": 182.3407, "ARG_OF_PERICENTER": 260.1856, "MEAN_ANOMALY": 206.8435, "EPHEMERIS_TYPE": 0, "CLASSIFICATION_TYPE": "U", "NORAD_CAT_ID": 66810, "ELEMENT_SET_NO": 999, "REV_AT_EPOCH": 459, "BSTAR": -0.00078275295, "MEAN_MOTION_DOT": -0.00045999, "MEAN_MOTION_DDOT": 0}, "tle": {"line1": "1 66810U 25278V   25358.33336806 -.00045999  00000+0 -78275-3 0  9999", "line2": "2 66810  43.0002 182.3407 0001697 260.1856 206.8435 15.50582154  4590"}}, "geometry": {"type": "Point", "coordinates": [116.71447802305866, -39.45768662385785]}}, {"type": "Feature", "properties": {"norad_id": 66811, "name": "STARLINK-36045", "group": "last-30-days", "lat": -38.82328926510081, "lon": 119.0348079266481, "alt_km": 417.3006580563224, "timestamp": "2025-12-24T22:42:20.746109+00:00", "meta": {"OBJECT_NAME": "STARLINK-36045", "OBJECT_ID": "2025-278W", "EPOCH": "2025-12-24T08:00:03.000384", "MEAN_MOTION": 15.50584536, "ECCENTRICITY": 0.00019034, "INCLINATION": 43.0002, "RA_OF_ASC_NODE": 182.3353, "ARG_OF_PERICENTER": 257.4514, "MEAN_ANOMALY": 211.4978, "EPHEMERIS_TYPE": 0, "CLASSIFICATION_TYPE": "U", "NORAD_CAT_ID": 66811, "ELEMENT_SET_NO": 999, "REV_AT_EPOCH": 482, "BSTAR": -0.00094847922, "MEAN_MOTION_DOT": -0.00055604, "MEAN_MOTION_DDOT": 0}, "tle": {"line1": "1 66811U 25278W   25358.33336806 -.00055604  00000+0 -94848-3 0  9998", "line2": "2 66811  43.0002 182.3353 0001903 257.4514 211.4978 15.50584536  4827"}}, "geometry": {"type": "Point", "coordinates": [119.0348079266481, -38.82328926510081]}}, {"type": "Feature", "properties": {"norad_id": 66812, "name": "STARLINK-36054", "group": "last-30-days", "lat": -37.41832921319352, "lon": 123.55474829297063, "alt_km": 417.26460274353667, "timestamp": "2025-12-24T22:42:20.746119+00:00", "meta": {"OBJECT_NAME": "STARLINK-36054", "OBJECT_ID": "2025-278X", "EPOCH": "2025-12-24T08:00:03.000384", "MEAN_MOTION": 15.50579546, "ECCENTRICITY": 0.0001749, "INCLINATION": 43.0002, "RA_OF_ASC_NODE": 182.3256, "ARG_OF_PERICENTER": 266.3486, "MEAN_ANOMALY": 206.4414, "EPHEMERIS_TYPE": 0, "CLASSIFICATION_TYPE": "U", "NORAD_CAT_ID": 66812, "ELEMENT_SET_NO": 999, "REV_AT_EPOCH": 482, "BSTAR": -0.00084606768, "MEAN_MOTION_DOT": -0.00049665, "MEAN_MOTION_DDOT": 0}, "tle": {"line1": "1 66812U 25278X   25358.33336806 -.00049665  00000+0 -84607-3 0  9991", "line2": "2 66812  43.0002 182.3256 0001749 266.3486 206.4414 15.50579546  4829"}}, "geometry": {"type": "Point", "coordinates": [123.55474829297063, -37.41832921319352]}}, {"type": "Feature", "properties": {"norad_id": 66813, "name": "STARLINK-36042", "group": "last-30-days", "lat": -36.65314147952154, "lon": 125.74654109717714, "alt_km": 417.18076509313414, "timestamp": "2025-12-24T22:42:20.746133+00:00", "meta": {"OBJECT_NAME": "STARLINK-36042", "OBJECT_ID": "2025-278Y", "EPOCH": "2025-12-24T08:00:03.000384", "MEAN_MOTION": 15.50585125, "ECCENTRICITY": 0.00017774, "INCLINATION": 43.0002, "RA_OF_ASC_NODE": 182.3202, "ARG_OF_PERICENTER": 270.3336, "MEAN_ANOMALY": 204.3634, "EPHEMERIS_TYPE": 0, "CLASSIFICATION_TYPE": "U", "NORAD_CAT_ID": 66813, "ELEMENT_SET_NO": 999, "REV_AT_EPOCH": 482, "BSTAR": -0.00087903965, "MEAN_MOTION_DOT": -0.00051585, "MEAN_MOTION_DDOT": 0}, "tle": {"line1": "1 66813U 25278Y   25358.33336806 -.00051585  00000+0 -87904-3 0  9999", "line2": "2 66813  43.0002 182.3202 0001777 270.3336 204.3634 15.50585125  4822"}}, "geometry": {"type": "Point", "coordinates": [125.74654109717714, -36.65314147952154]}}, {"type": "Feature", "properties": {"norad_id": 66814, "name": "STARLINK-35984", "group": "last-30-days", "lat": -31.277184917674298, "lon": 138.02359079383913, "alt_km": 416.87778166417866, "timestamp": "2025-12-24T22:42:20.746143+00:00", "meta": {"OBJECT_NAME": "STARLINK-35984", "OBJECT_ID": "2025-278Z", "EPOCH": "2025-12-24T08:00:03.000384", "MEAN_MOTION": 15.50504015, "ECCENTRICITY": 0.00016647, "INCLINATION": 43.0003, "RA_OF_ASC_NODE": 182.292, "ARG_OF_PERICENTER": 269.3511, "MEAN_ANOMALY": 216.8892, "EPHEMERIS_TYPE": 0, "CLASSIFICATION_TYPE": "U", "NORAD_CAT_ID": 66814, "ELEMENT_SET_NO": 999, "REV_AT_EPOCH": 491, "BSTAR": 0.0012611795, "MEAN_MOTION_DOT": 0.00074151, "MEAN_MOTION_DDOT": 0}, "tle": {"line1": "1 66814U 25278Z   25358.33336806  .00074151  00000+0  12612-2 0  9995", "line2": "2 66814  43.0003 182.2920 0001664 269.3511 216.8892 15.50504015  4911"}}, "geometry": {"type": "Point", "coordinates": [138.02359079383913, -31.277184917674298]}}, {"type": "Feature", "properties": {"norad_id": 66815, "name": "STARLINK-35985", "group": "last-30-days", "lat": -32.26629205552152, "lon": 136.06085331813594, "alt_km": 417.1728229125192, "timestamp": "2025-12-24T22:42:20.746153+00:00", "meta": {"OBJECT_NAME": "STARLINK-35985", "OBJECT_ID": "2025-278AA", "EPOCH": "2025-12-24T08:00:03.000384", "MEAN_MOTION": 15.50585246, "ECCENTRICITY": 0.00016706, "INCLINATION": 43.0002, "RA_OF_ASC_NODE": 182.2956, "ARG_OF_PERICENTER": 264.1138, "MEAN_ANOMALY": 220.1703, "EPHEMERIS_TYPE": 0, "CLASSIFICATION_TYPE": "U", "NORAD_CAT_ID": 66815, "ELEMENT_SET_NO": 999, "REV_AT_EPOCH": 491, "BSTAR": -0.0008731566, "MEAN_MOTION_DOT": -0.00051244, "MEAN_MOTION_DDOT": 0}, "tle": {"line1": "1 66815U 25278AA  25358.33336806 -.00051244  00000+0 -87316-3 0  9990", "line2": "2 66815  43.0002 182.2956 0001670 264.1138 220.1703 15.50585246  4919"}}, "geometry": {"type": "Point", "coordinates": [136.06085331813594, -32.26629205552152]}}, {"type": "Feature", "properties": {"norad_id": 66816, "name": "STARLINK-36098", "group": "last-30-days", "lat": -35.8495035738874, "lon": 127.89180123930937, "alt_km": 417.2803690724768, "timestamp": "2025-12-24T22:42:20.746162+00:00", "meta": {"OBJECT_NAME": "STARLINK-36098", "OBJECT_ID": "2025-278AB", "EPOCH": "2025-12-24T08:00:03.000384", "MEAN_MOTION": 15.50590386, "ECCENTRICITY": 0.00018083, "INCLINATION": 43.0002, "RA_OF_ASC_NODE": 182.3154, "ARG_OF_PERICENTER": 260.3601, "MEAN_ANOMALY": 216.2526, "EPHEMERIS_TYPE": 0, "CLASSIFICATION_TYPE": "U", "NORAD_CAT_ID": 66816, "ELEMENT_SET_NO": 999, "REV_AT_EPOCH": 466, "BSTAR": -0.0011016792, "MEAN_MOTION_DOT": -0.0006447, "MEAN_MOTION_DDOT": 0}, "tle": {"line1": "1 66816U 25278AB  25358.33336806 -.00064470  00000+0 -11017-2 0  9990", "line2": "2 66816  43.0002 182.3154 0001808 260.3601 216.2526 15.50590386  4669"}}, "geometry": {"type": "Point", "coordinates": [127.89180123930937, -35.8495035738874]}}, {"type": "Feature", "properties": {"norad_id": 66817, "name": "STARLINK-35995", "group": "last-30-days", "lat": -34.10850665227572, "lon": 132.1037995513487, "alt_km": 417.00649923562105, "timestamp": "2025-12-24T22:42:20.746174+00:00", "meta": {"OBJECT_NAME": "STARLINK-35995", "OBJECT_ID": "2025-278AC", "EPOCH": "2025-12-24T08:00:03.000384", "MEAN_MOTION": 15.50486086, "ECCENTRICITY": 0.00017108, "INCLINATION": 43.0002, "RA_OF_ASC_NODE": 182.3067, "ARG_OF_PERICENTER": 262.461, "MEAN_ANOMALY": 218.0416, "EPHEMERIS_TYPE": 0, "CLASSIFICATION_TYPE": "U", "NORAD_CAT_ID": 66817, "ELEMENT_SET_NO": 999, "REV_AT_EPOCH": 482, "BSTAR": 0.0016433937, "MEAN_MOTION_DOT": 0.0009695, "MEAN_MOTION_DDOT": 0}, "tle": {"line1": "1 66817U 25278AC  25358.33336806  .00096950  00000+0  16434-2 0  9995", "line2": "2 66817  43.0002 182.3067 0001710 262.4610 218.0416 15.50486086  4825"}}, "geometry": {"type": "Point", "coordinates": [132.1037995513487, -34.10850665227572]}}, {"type": "Feature", "properties": {"norad_id": 66818, "name": "STARLINK-35994", "group": "last-30-days", "lat": -34.99211986722004, "lon": 130.03342472486355, "alt_km": 417.15199016671977, "timestamp": "2025-12-24T22:42:20.746184+00:00", "meta": {"OBJECT_NAME": "STARLINK-35994", "OBJECT_ID": "2025-278AD", "EPOCH": "2025-12-24T08:00:03.000384", "MEAN_MOTION": 15.50591507, "ECCENTRICITY": 0.00017047, "INCLINATION": 43.0001, "RA_OF_ASC_NODE": 182.3121, "ARG_OF_PERICENTER": 266.893, "MEAN_ANOMALY": 211.636, "EPHEMERIS_TYPE": 0, "CLASSIFICATION_TYPE": "U", "NORAD_CAT_ID": 66818, "ELEMENT_SET_NO": 999, "REV_AT_EPOCH": 482, "BSTAR": -0.00068888246, "MEAN_MOTION_DOT": -0.00040565, "MEAN_MOTION_DDOT": 0}, "tle": {"line1": "1 66818U 25278AD  25358.33336806 -.00040565  00000+0 -68888-3 0  9990", "line2": "2 66818  43.0001 182.3121 0001704 266.8930 211.6360 15.50591507  4824"}}, "geometry": {"type": "Point", "coordinates": [130.03342472486355, -34.99211986722004]}}]}